CZ-2C R/B               
1 54039U 22132E   26030.91439589  .00038800  00000+0  50303-3 0  9992
2 54039  97.2948  33.1866 0017039 224.6077 135.3809 15.58594131184483
GSLV R/B                
1 54149U 22138AN  26030.94364454  .00004210  00000+0  36722-3 0  9998
2 54149  87.3847 178.9938 0019509 291.3413  68.5736 14.96475906178286
XRISM                   
1 57800U 23137A   26030.72917087  .00006851  00000+0  39429-3 0  9997
2 57800  31.0007 169.0974 0007966  18.5583 341.5345 15.11004802132044
ACS3                    
1 59588U 24077B   26030.88957239  .00025118  00000+0  20865-1 0  9995
2 59588  97.2272 340.4967 0046440 199.5872 160.3508 13.88028094 88954
SZ-21 MODULE            
1 66515U 25246C   26030.83597794  .00032437  00000+0  31391-3 0  9993
2 66515  41.4761  75.8706 0003415 259.1766 100.8691 15.65707701 12131
